OBJECT_NAME,OBJECT_ID,EPOCH,MEAN_MOTION,ECCENTRICITY,INCLINATION,RA_OF_ASC_NODE,ARG_OF_PERICENTER,MEAN_ANOMALY,EPHEMERIS_TYPE,CLASSIFICATION_TYPE,NORAD_CAT_ID,ELEMENT_SET_NO,REV_AT_EPOCH,BSTAR,MEAN_MOTION_DOT,MEAN_MOTION_DDOT
GSAT-17,2017-040B,2026-06-11T08:33:10.934784,1.00270654,.00016008,0.1114,88.0254,207.2283,186.2546,0,U,42815,999,3273,0,-.241E-5,0
INTELSAT 35E (IS-35E),2017-041A,2026-06-11T09:32:33.614592,1.00270589,.00016783,0.0188,325.5986,111.0010,291.8096,0,U,42818,999,3275,0,-.221E-5,0
COSMOS 2520,2017-046A,2026-06-10T13:30:18.257184,1.00271321,.00010538,0.0454,86.1390,55.6369,4.7331,0,U,42907,999,3233,0,.154E-5,0
TDRS 13,2017-047A,2026-06-11T08:03:28.113120,1.00271625,.00144989,3.4501,2.5758,105.9210,260.6173,0,U,42915,999,3229,0,-.85E-6,0
QZS-3 (MICHIBIKI-3),2017-048A,2026-06-11T13:50:58.337376,1.00267611,.00025391,0.0670,170.0098,279.1209,145.5265,0,U,42917,999,3220,0,-.331E-5,0
AMAZONAS 5,2017-053A,2026-06-09T07:54:55.355040,1.00270254,.00024128,0.0312,323.9850,64.7103,286.7531,0,U,42934,999,3196,0,-.266E-5,0
ASIASAT 9,2017-057A,2026-06-11T06:58:56.063424,1.00264399,.00025391,0.0386,44.0626,23.3223,59.1383,0,U,42942,999,3180,0,0,0
INTELSAT 37E (IS-37E),2017-059A,2026-06-11T06:18:55.622592,1.00269936,.00023819,0.0178,11.8435,91.1558,233.3384,0,U,42950,999,3200,0,-.124E-5,0
BSAT-4A,2017-059B,2026-06-09T00:10:15.784896,1.00272912,.0004164,0.0365,6.7991,58.5529,304.4340,0,U,42951,999,3171,0,-.334E-5,0
QZS-4 (MICHIBIKI-4),2017-062A,2026-06-11T08:43:46.489728,1.00252284,.07452003,40.1116,343.5575,271.6390,272.9173,0,U,42965,999,3174,0,-.318E-5,0
SES-11 (ECHOSTAR 105),2017-063A,2026-06-09T16:15:41.654016,1.00270770,.00026793,0.0151,352.2876,98.2971,306.4353,0,U,42967,999,3164,0,-.72E-6,0
KOREASAT 5A,2017-067A,2026-06-11T13:46:58.719936,1.00269554,.00004643,0.0090,318.5959,140.8020,120.4155,0,U,42984,999,3147,0,-.341E-5,0
ALCOMSAT 1,2017-078A,2026-06-11T07:59:35.983968,1.00271918,.00022294,0.0412,75.5352,0.4582,278.8010,0,U,43039,999,3123,0,-.169E-5,0
SBIRS GEO-3 (USA 282),2018-009A,2026-06-11T14:11:56.016384,1.00271606,.00019189,2.1799,11.8125,63.9521,237.7585,0,U,43162,999,3078,0,.143E-5,0
AL YAH 3,2018-012A,2026-06-11T08:00:58.351680,1.00270700,.00039705,1.5359,83.1759,357.1756,279.4773,0,U,43174,999,3078,0,-.139E-5,0
SES-14,2018-012B,2026-06-09T11:24:01.053216,1.00270313,.00010572,0.0220,31.0141,53.8990,296.4420,0,U,43175,999,694,0,-.261E-5,0
GOES 17,2018-022A,2026-06-11T12:49:10.615296,1.00270838,.00004815,0.9221,85.8109,24.5670,252.3064,0,U,43226,999,3036,0,-.166E-5,0
HISPASAT 30W-6,2018-023A,2026-06-09T04:38:24.091296,1.00270107,.0006065,0.0466,43.0702,24.4046,229.6971,0,U,43228,999,3032,0,-.199E-5,0
SUPERBIRD-B3,2018-033A,2026-06-11T13:03:38.849760,1.00270511,.00012045,0.0115,310.7137,156.9599,150.1265,0,U,43271,999,3000,0,-.76E-6,0
HYLAS 4,2018-033B,2026-06-10T19:58:35.052960,1.00270681,.0001184,0.0188,59.6501,20.7984,84.9113,0,U,43272,999,3000,0,-.216E-5,0
IRNSS-1I,2018-035A,2026-06-10T23:58:16.872960,1.00270739,.00178781,28.7398,74.2932,181.9830,57.5112,0,U,43286,999,3001,0,.84E-6,0
USA 283,2018-036A,2026-06-10T10:28:38.701920,1.00269147,.000013,0.0149,323.1993,214.6638,12.1871,0,U,43339,999,2522,0,0,0
COSMOS 2526,2018-037A,2026-06-11T00:09:56.689632,1.00278103,.0000807,0.0303,76.5937,95.3826,217.9413,0,U,43432,999,2989,0,-.327E-5,0
APSTAR-6C,2018-041A,2026-06-11T08:44:53.881728,1.00271624,.0001105,0.0240,340.9036,7.0969,176.9539,0,U,43450,999,2975,0,-.301E-5,0
BANGABANDHUSAT-1,2018-044A,2026-06-11T13:48:43.553376,1.00267673,.0001682,0.0188,5.4414,79.2804,141.4643,0,U,43463,999,2965,0,0,0
SES-12,2018-049A,2026-06-11T11:59:11.506272,1.00272457,.00010023,0.0231,34.3989,267.7443,232.5100,0,U,43488,999,2936,0,-.253E-5,0
FENGYUN 2H,2018-050A,2026-06-11T15:20:01.495680,1.00270471,.0001782,3.0156,79.1427,130.6874,359.5967,0,U,43491,999,2938,0,-.115E-5,0
BEIDOU-2 IGSO-7,2018-057A,2026-06-10T23:53:30.375744,1.00253023,.01048473,55.1937,163.1120,237.9272,327.1184,0,U,43539,999,2906,0,.4E-6,0
TELSTAR 19V,2018-059A,2026-06-09T01:05:04.975008,1.00255741,.00032288,0.0357,175.1217,305.1580,90.4046,0,U,43562,999,2906,0,-.262E-5,0
TELKOM 4 (MERAH PUTIH),2018-064A,2026-06-11T15:53:53.681568,1.00267478,.00013089,0.0206,10.1080,108.0896,128.2688,0,U,43587,999,2882,0,0,0
TELSTAR 18V,2018-069A,2026-06-11T13:54:03.903840,1.00269415,.00016884,0.0128,300.7624,138.4672,167.2163,0,U,43611,999,2858,0,-.277E-5,0
AZERSPACE 2 (IS-38),2018-074A,2026-06-11T03:11:40.360992,1.00271976,.00011981,0.0036,69.3548,12.8510,270.3100,0,U,43632,999,2838,0,.154E-5,0
